
# Worst residual: 20.65 km
# MJD 59239.000000 (2021 Jan 25  0:00)
2013-070B = NORAD 39459 = UX29E26 = Chang'e 3 booster
1 39459U 13070B   21025.49919926  .00000000  00000-0  00000-0 2 10871
2 39459 053.9724 023.5674 7075211 121.0320 297.6047 00.03395000    06

# Worst residual: 18.78 km
# MJD 59240.000000 (2021 Jan 26  0:00)
2013-070B = NORAD 39459 = UX29E26 = Chang'e 3 booster
1 39459U 13070B   21026.49919926  .00000000  00000-0  00000-0 2 10872
2 39459 054.1488 023.4923 7102240 121.3853 309.8190 00.03406179    04

# Worst residual: 16.59 km
# MJD 59241.000000 (2021 Jan 27  0:00)
2013-070B = NORAD 39459 = UX29E26 = Chang'e 3 booster
1 39459U 13070B   21027.49919926  .00000000  00000-0  00000-0 2 10873
2 39459 054.2867 023.4606 7121469 121.6915 322.0571 00.03416276    09

# Worst residual: 11.61 km
# MJD 59242.000000 (2021 Jan 28  0:00)
2013-070B = NORAD 39459 = UX29E26 = Chang'e 3 booster
1 39459U 13070B   21028.49919926  .00000000  00000-0  00000-0 2 10874
2 39459 054.3686 023.4623 7134346 121.9049 334.3627 00.03420887    08

# Worst residual: 6.15 km
# MJD 59243.000000 (2021 Jan 29  0:00)
2013-070B = NORAD 39459 = UX29E26 = Chang'e 3 booster
1 39459U 13070B   21029.49919926  .00000000  00000-0  00000-0 2 10875
2 39459 054.3925 023.4717 7144663 121.9909 346.7219 00.03413375    04

# Worst residual: 12.66 km
# MJD 59244.000000 (2021 Jan 30  0:00)
2013-070B = NORAD 39459 = UX29E26 = Chang'e 3 booster
1 39459U 13070B   21030.49919926  .00000000  00000-0  00000-0 2 10877
2 39459 054.3859 023.4403 7163117 121.9444 359.0321 00.03380014    05

# Worst residual: 13.67 km
# MJD 59245.000000 (2021 Jan 31  0:00)
2013-070B = NORAD 39459 = UX29E26 = Chang'e 3 booster
1 39459U 13070B   21031.49919926  .00000000  00000-0  00000-0 2 10878
2 39459 054.4331 023.4148 7152574 121.8024 011.2931 00.03402186    04

# Worst residual: 9.05 km
# MJD 59246.000000 (2021 Feb  1  0:00)
2013-070B = NORAD 39459 = UX29E26 = Chang'e 3 booster
1 39459U 13070B   21032.49919926  .00000000  00000-0  00000-0 2 10879
2 39459 054.4468 023.4224 7131078 121.6689 023.8498 00.03442003    00

# Worst residual: 12.98 km
# MJD 59247.000000 (2021 Feb  2  0:00)
2013-070B = NORAD 39459 = UX29E26 = Chang'e 3 booster
1 39459U 13070B   21033.49919926  .00000000  00000-0  00000-0 2 10870
2 39459 054.4233 023.3736 7113447 121.7703 036.4436 00.03456145    09

# Worst residual: 14.63 km
# MJD 59248.000000 (2021 Feb  3  0:00)
2013-070B = NORAD 39459 = UX29E26 = Chang'e 3 booster
1 39459U 13070B   21034.49919926  .00000000  00000-0  00000-0 2 10871
2 39459 054.3932 023.2613 7092547 122.0205 049.0089 00.03457799    05

# Worst residual: 14.54 km
# MJD 59249.000000 (2021 Feb  4  0:00)
2013-070B = NORAD 39459 = UX29E26 = Chang'e 3 booster
1 39459U 13070B   21035.49919926  .00000000  00000-0  00000-0 2 10872
2 39459 054.3714 023.0961 7066835 122.3355 061.5604 00.03454584    08

# Worst residual: 14.53 km
# MJD 59250.000000 (2021 Feb  5  0:00)
2013-070B = NORAD 39459 = UX29E26 = Chang'e 3 booster
1 39459U 13070B   21036.49919926  .00000000  00000-0  00000-0 2 10873
2 39459 054.3649 022.8874 7037429 122.6582 074.1303 00.03450194    06

# Worst residual: 16.32 km
# MJD 59251.000000 (2021 Feb  6  0:00)
2013-070B = NORAD 39459 = UX29E26 = Chang'e 3 booster
1 39459U 13070B   21037.49919926  .00000000  00000-0  00000-0 2 10874
2 39459 054.3774 022.6388 7006454 122.9540 086.7527 00.03446459    00

# Worst residual: 18.16 km
# MJD 59252.000000 (2021 Feb  7  0:00)
2013-070B = NORAD 39459 = UX29E26 = Chang'e 3 booster
1 39459U 13070B   21038.49919926  .00000000  00000-0  00000-0 2 10875
2 39459 054.4128 022.3477 6976150 123.2076 099.4560 00.03444158    08

# Worst residual: 20.01 km
# MJD 59253.000000 (2021 Feb  8  0:00)
2013-070B = NORAD 39459 = UX29E26 = Chang'e 3 booster
1 39459U 13070B   21039.49919926  .00000000  00000-0  00000-0 2 10876
2 39459 054.4764 022.0081 6948190 123.4196 112.2572 00.03443308    03

# Worst residual: 21.54 km
# MJD 59254.000000 (2021 Feb  9  0:00)
2013-070B = NORAD 39459 = UX29E26 = Chang'e 3 booster
1 39459U 13070B   21040.49919926  .00000000  00000-0  00000-0 2 10878
2 39459 054.5740 021.6169 6923150 123.6010 125.1552 00.03443278    03

# Worst residual: 22.29 km
# MJD 59255.000000 (2021 Feb 10  0:00)
2013-070B = NORAD 39459 = UX29E26 = Chang'e 3 booster
1 39459U 13070B   21041.49919926  .00000000  00000-0  00000-0 2 10879
2 39459 054.7091 021.1823 6900523 123.7642 138.1236 00.03443010    04

# Worst residual: 21.84 km
# MJD 59256.000000 (2021 Feb 11  0:00)
2013-070B = NORAD 39459 = UX29E26 = Chang'e 3 booster
1 39459U 13070B   21042.49919926  .00000000  00000-0  00000-0 2 10870
2 39459 054.8787 020.7273 6879665 123.9157 151.1090 00.03441556    02

# Worst residual: 19.85 km
# MJD 59257.000000 (2021 Feb 12  0:00)
2013-070B = NORAD 39459 = UX29E26 = Chang'e 3 booster
1 39459U 13070B   21043.49919926  .00000000  00000-0  00000-0 2 10871
2 39459 055.0737 020.2804 6861129 124.0561 164.0426 00.03438765    06

# Worst residual: 16.71 km
# MJD 59258.000000 (2021 Feb 13  0:00)
2013-070B = NORAD 39459 = UX29E26 = Chang'e 3 booster
1 39459U 13070B   21044.49919926  .00000000  00000-0  00000-0 2 10872
2 39459 055.2851 019.8603 6846849 124.1897 176.8648 00.03435444    09

# Worst residual: 12.89 km
# MJD 59259.000000 (2021 Feb 14  0:00)
2013-070B = NORAD 39459 = UX29E26 = Chang'e 3 booster
1 39459U 13070B   21045.49919926  .00000000  00000-0  00000-0 2 10873
2 39459 055.5064 019.4750 6838845 124.3240 189.5520 00.03432825    08

# Worst residual: 12.19 km
# MJD 59260.000000 (2021 Feb 15  0:00)
2013-070B = NORAD 39459 = UX29E26 = Chang'e 3 booster
1 39459U 13070B   21046.49919926  .00000000  00000-0  00000-0 2 10874
2 39459 055.7483 019.1038 6838236 124.4919 202.0675 00.03432098    03

# Worst residual: 14.57 km
# MJD 59261.000000 (2021 Feb 16  0:00)
2013-070B = NORAD 39459 = UX29E26 = Chang'e 3 booster
1 39459U 13070B   21047.49919926  .00000000  00000-0  00000-0 2 10875
2 39459 056.0053 018.7565 6844621 124.6915 214.4526 00.03433927    07

# Worst residual: 16.72 km
# MJD 59262.000000 (2021 Feb 17  0:00)
2013-070B = NORAD 39459 = UX29E26 = Chang'e 3 booster
1 39459U 13070B   21048.49919926  .00000000  00000-0  00000-0 2 10876
2 39459 056.2821 018.4268 6856921 124.9366 226.7188 00.03438784    04
